ONEWEB-0683             
1 56719U 23068K   24158.40914632 -.00000071  00000+0 -22343-3 0  9992
2 56719  87.9052  46.5945 0001677  71.7717 288.3596 13.15547549 52029
ONEWEB-0684             
1 56720U 23068L   24158.41707608 -.00000078  00000+0 -24007-3 0  9994
2 56720  87.9053  46.6694 0003440  78.5281 281.6236 13.15546892 51852
ONEWEB-0686             
1 56721U 23068M   24159.03329208  .00000006  00000+0 -16947-4 0  9995
2 56721  87.9105  16.1715 0001955  80.5180 279.6171 13.16592949 55020
ONEWEB-0694             
1 56722U 23068N   24159.29691343  .00000108  00000+0  24810-3 0  9995
2 56722  87.9102  16.0384 0001443  72.2228 287.9060 13.16592847 55118
ONEWEB-0696             
1 56723U 23068P   24158.45035270  .00000217  00000+0  54231-3 0  9995
2 56723  87.9052  46.6371 0002044  87.0963 273.0401 13.15548685 51971
ONEWEB-0703             
1 56724U 23068Q   24159.44860490  .00000169  00000+0  41353-3 0  9993
2 56724  87.9049  46.4594 0002788 102.9628 257.1813 13.15547659 52693
ONEWEB-0721             
1 56725U 23068R   24158.47043540  .00002797  00000+0  32408-3 0  9995
2 56725  86.6757 340.5673 0008860 319.7984  40.2584 14.85104693 56923
